COSMOS 2532 (RODNIK-S *)
1 43753U 18097C   26197.32515297 -.00000065  00000+0 -54290-3 0  9991
2 43753  82.5104 204.0379 0017970 358.3656   1.7362 12.42910480345898
MINXSS-2                
1 43758U 18099A   26197.18236202  .00023169  00000+0  43069-3 0  9998
2 43758  97.4528 274.3566 0008542 157.2726 202.8905 15.48867095418615
SIRION PATHFINDER-2     
1 43759U 18099B   26197.11729569  .00001774  00000+0  99040-4 0  9994
2 43759  97.4236 245.4890 0008549 188.1811 171.9283 15.14780657417004
AISTECHSAT 2            
1 43768U 18099L   26197.07301729  .00002959  00000+0  15872-3 0  9999
2 43768  97.4275 244.4767 0004754 177.4190 182.7068 15.15719168416655
FOX-1CLIFF (AO-95)      
1 43770U 18099N   26197.10722852  .00006434  00000+0  24333-3 0  9994
2 43770  97.4366 257.2560 0007323 235.9460 124.1084 15.27285234417639
RANGE-A                 
1 43773U 18099R   26197.06969912  .00002460  00000+0  14048-3 0  9999
2 43773  97.3949 238.8055 0008755 241.3562 118.6789 15.13611753416864
SNUSAT-2                
1 43782U 18099AA  26197.12865019  .00004239  00000+0  18711-3 0  9996
2 43782  97.4042 250.0729 0010306 184.5466 175.5678 15.22248447417438
SNUGLITE                
1 43784U 18099AC  26197.09869632  .00006644  00000+0  24761-3 0  9993
2 43784  97.3848 251.1031 0003729 157.2741 202.8664 15.27770104417732
ITASAT                  
1 43786U 18099AE  26197.13389985  .00003276  00000+0  15784-3 0  9991
2 43786  97.4011 248.0717 0010922 246.7548 113.2537 15.19388606417305
EAGLET-I                
1 43790U 18099AJ  26197.08559228  .00002322  00000+0  13453-3 0  9991
2 43790  97.4215 245.9899 0009666 240.7076 119.3190 15.13137627416700
ESEO                    
1 43792U 18099AL  26197.04936904  .00001353  00000+0  10118-3 0  9997
2 43792  97.3959 233.2003 0010957 230.3993 129.6267 15.04324567416149
THEA                    
1 43796U 18099AQ  26197.13642400  .00010723  00000+0  30830-3 0  9990
2 43796  97.4429 267.1275 0008152 171.2493 188.8894 15.35956998417131
ASTROCAST 0.1           
1 43798U 18099AS  26197.17329972  .00022131  00000+0  37545-3 0  9998
2 43798  97.4373 276.6151 0005485 126.0747 234.1014 15.51499415418926
JY1SAT (JO-97)          
1 43803U 18099AX  26197.12152900  .00009462  00000+0  28493-3 0  9999
2 43803  97.4113 260.0715 0007052 155.8355 204.3220 15.34537200418064
SUOMI-100               
1 43804U 18099AY  26197.13749334  .00006459  00000+0  23139-3 0  9999
2 43804  97.4168 257.4331 0010620 169.0276 191.1197 15.29045012417843
CENTAURI-1              
1 43809U 18099BD  26197.10665490  .00002799  00000+0  14631-3 0  9991
2 43809  97.4205 248.2074 0013059 221.4471 138.5773 15.16629966416881
GLOBAL-2                
1 43812U 18099BG  26197.05747908  .00001654  00000+0  10891-3 0  9997
2 43812  97.3548 232.3704 0007347  64.6460 295.5529 15.08828463416265
SEAHAWK-1               
1 43820U 18099BQ  26197.11013749  .00004823  00000+0  20642-3 0  9998
2 43820  97.3939 249.1607 0007949 194.8015 165.2991 15.23248133416933
SAUDISAT 5A             
1 43831U 18102A   26197.30292012  .00002677  00000+0  99589-4 0  9990
2 43831  97.3050 258.3253 0010340  40.3423 319.8582 15.28326846420127
SAUDISAT 5B             
1 43833U 18102C   26197.31701350  .00002647  00000+0  97773-4 0  9993
2 43833  97.3160 261.4616 0011118  41.6163 318.5921 15.28570226420247
ISAT                    
1 43879U 18111D   26197.26059833  .00075731  00000+0  60044-3 0  9993
2 43879  97.5857 134.8449 0007846 136.7570 223.4309 15.71028539415724
UWE-4                   
1 43880U 18111E   26196.35233479  .00020350  00000+0  39289-3 0  9998
2 43880  97.5850 126.0767 0006288 193.5981 166.5100 15.47824446415136
D-STAR ONE (SPARROW)    
1 43881U 18111F   26196.83031635  .00204155  00000+0  84500-3 0  9995
2 43881  97.6094 140.6193 0008419 139.5690 220.6207 15.85257921415891
JILIN-1 09              
1 43943U 19005B   26197.26533741  .00002326  00000+0  10885-3 0  9991
2 43943  97.4748 291.9846 0002229  33.6848 326.4529 15.20745788413567
JILIN-1 10              
1 43946U 19005E   26197.24332991  .00002990  00000+0  11903-3 0  9995
2 43946  97.4800 296.0547 0008676 166.3681 193.7793 15.26013021413746
EGYPTSAT-A (MISRSAT-A)  
1 44047U 19008A   26197.29843442  .00000480  00000+0  83658-4 0  9993
2 44047  98.0185 261.6681 0001735  93.6150 266.5256 14.72338014397523
EMISAT                  
1 44078U 19018A   26197.32340931  .00000212  00000+0  75380-4 0  9993
2 44078  98.4635 255.9610 0019413 127.9573 232.3375 14.43650029384262
JILIN-1 GAOFEN 3A       
1 44312U 19032C   26197.27919057  .00005554  00000+0  17925-3 0  9999
2 44312  44.9725 196.7503 0004774 112.5231 247.6160 15.33202179392301
WT 1B                   
1 44316U 19032G   26197.23658490  .00005537  00000+0  21104-3 0  9995
2 44316  44.9732 262.3085 0008291  42.3022 317.8499 15.27738147391524
