OBJECT_NAME,OBJECT_ID,EPOCH,MEAN_MOTION,ECCENTRICITY,INCLINATION,RA_OF_ASC_NODE,ARG_OF_PERICENTER,MEAN_ANOMALY,EPHEMERIS_TYPE,CLASSIFICATION_TYPE,NORAD_CAT_ID,ELEMENT_SET_NO,REV_AT_EPOCH,BSTAR,MEAN_MOTION_DOT,MEAN_MOTION_DDOT
COSMOS 2532 (RODNIK-S 18),2018-097C,2026-07-16T07:48:13.216608,12.42910480,.00179701,82.5104,204.0379,358.3656,1.7362,0,U,43753,999,34589,-.542897E-3,-.65E-6,0
MINXSS-2,2018-099A,2026-07-16T04:22:36.078528,15.48867095,.00085429,97.4528,274.3566,157.2726,202.8905,0,U,43758,999,41861,.43068683E-3,.23169E-3,0
SIRION PATHFINDER-2,2018-099B,2026-07-16T02:48:54.347616,15.14780657,.00085491,97.4236,245.4890,188.1811,171.9283,0,U,43759,999,41700,.99039815E-4,.1774E-4,0
AISTECHSAT 2,2018-099L,2026-07-16T01:45:08.693856,15.15719168,.00047547,97.4275,244.4767,177.4190,182.7068,0,U,43768,999,41665,.15872144E-3,.2959E-4,0
FOX-1CLIFF (AO-95),2018-099N,2026-07-16T02:34:24.544128,15.27285234,.00073232,97.4366,257.2560,235.9460,124.1084,0,U,43770,999,41763,.24333245E-3,.6434E-4,0
RANGE-A,2018-099R,2026-07-16T01:40:22.003968,15.13611753,.00087551,97.3949,238.8055,241.3562,118.6789,0,U,43773,999,41686,.14048243E-3,.246E-4,0
SNUSAT-2,2018-099AA,2026-07-16T03:05:15.376416,15.22248447,.00103067,97.4042,250.0729,184.5466,175.5678,0,U,43782,999,41743,.18711161E-3,.4239E-4,0
SNUGLITE,2018-099AC,2026-07-16T02:22:07.362048,15.27770104,.00037292,97.3848,251.1031,157.2741,202.8664,0,U,43784,999,41773,.24760681E-3,.6644E-4,0
ITASAT,2018-099AE,2026-07-16T03:12:48.947040,15.19388606,.00109223,97.4011,248.0717,246.7548,113.2537,0,U,43786,999,41730,.15784253E-3,.3276E-4,0
EAGLET-I,2018-099AJ,2026-07-16T02:03:15.172992,15.13137627,.00096667,97.4215,245.9899,240.7076,119.3190,0,U,43790,999,41670,.13452786E-3,.2322E-4,0
ESEO,2018-099AL,2026-07-16T01:11:05.485056,15.04324567,.00109571,97.3959,233.2003,230.3993,129.6267,0,U,43792,999,41614,.1011751E-3,.1353E-4,0
THEA,2018-099AQ,2026-07-16T03:16:27.033600,15.35956998,.00081521,97.4429,267.1275,171.2493,188.8894,0,U,43796,999,41713,.30829765E-3,.10723E-3,0
ASTROCAST 0.1,2018-099AS,2026-07-16T04:09:33.095808,15.51499415,.00054856,97.4373,276.6151,126.0747,234.1014,0,U,43798,999,41892,.3754474E-3,.22131E-3,0
JY1SAT (JO-97),2018-099AX,2026-07-16T02:55:00.105600,15.34537200,.00070524,97.4113,260.0715,155.8355,204.3220,0,U,43803,999,41806,.28493287E-3,.9462E-4,0
SUOMI-100,2018-099AY,2026-07-16T03:17:59.424576,15.29045012,.00106208,97.4168,257.4331,169.0276,191.1197,0,U,43804,999,41784,.23139028E-3,.6459E-4,0
CENTAURI-1,2018-099BD,2026-07-16T02:33:34.983360,15.16629966,.00130592,97.4205,248.2074,221.4471,138.5773,0,U,43809,999,41688,.14631297E-3,.2799E-4,0
GLOBAL-2,2018-099BG,2026-07-16T01:22:46.192512,15.08828463,.00073472,97.3548,232.3704,64.6460,295.5529,0,U,43812,999,41626,.10891344E-3,.1654E-4,0
SEAHAWK-1,2018-099BQ,2026-07-16T02:38:35.879136,15.23248133,.00079493,97.3939,249.1607,194.8015,165.2991,0,U,43820,999,41693,.20642188E-3,.4823E-4,0
SAUDISAT 5A,2018-102A,2026-07-16T07:16:12.298368,15.28326846,.00103401,97.3050,258.3253,40.3423,319.8582,0,U,43831,999,42012,.9958902E-4,.2677E-4,0
SAUDISAT 5B,2018-102C,2026-07-16T07:36:29.966400,15.28570226,.00111188,97.3160,261.4616,41.6163,318.5921,0,U,43833,999,42024,.97773477E-4,.2647E-4,0
ISAT,2018-111D,2026-07-16T06:15:15.695712,15.71028539,.00078467,97.5857,134.8449,136.7570,223.4309,0,U,43879,999,41572,.60044277E-3,.75731E-3,0
UWE-4,2018-111E,2026-07-15T08:27:21.725856,15.47824446,.00062889,97.5850,126.0767,193.5981,166.5100,0,U,43880,999,41513,.39288701E-3,.2035E-3,0
D-STAR ONE (SPARROW),2018-111F,2026-07-15T19:55:39.332640,15.85257921,.00084193,97.6094,140.6193,139.5690,220.6207,0,U,43881,999,41589,.8449975E-3,.204155E-2,0
JILIN-1 09,2019-005B,2026-07-16T06:22:05.152224,15.20745788,.00022296,97.4748,291.9846,33.6848,326.4529,0,U,43943,999,41356,.10884722E-3,.2326E-4,0
JILIN-1 10,2019-005E,2026-07-16T05:50:23.704224,15.26013021,.0008676,97.4800,296.0547,166.3681,193.7793,0,U,43946,999,41374,.11902579E-3,.299E-4,0
EGYPTSAT-A (MISRSAT-A),2019-008A,2026-07-16T07:09:44.733888,14.72338014,.00017356,98.0185,261.6681,93.6150,266.5256,0,U,44047,999,39752,.83657755E-4,.48E-5,0
EMISAT,2019-018A,2026-07-16T07:45:42.564384,14.43650029,.0019413,98.4635,255.9610,127.9573,232.3375,0,U,44078,999,38426,.75380059E-4,.212E-5,0
JILIN-1 GAOFEN 3A,2019-032C,2026-07-16T06:42:02.065248,15.33202179,.00047746,44.9725,196.7503,112.5231,247.6160,0,U,44312,999,39230,.17924706E-3,.5554E-4,0
WT 1B,2019-032G,2026-07-16T05:40:40.935360,15.27738147,.00082911,44.9732,262.3085,42.3022,317.8499,0,U,44316,999,39152,.21104104E-3,.5537E-4,0
